<?xml version="1.0" encoding="UTF-8"?>
<ndm xmlns:xsi="http://www.w3.org/2001/XMLSchema-instance"
     xsi:noNamespaceSchemaLocation="https://sanaregistry.org/r/ndmxml_unqualified/ndmxml-3.0.0-master-3.0.xsd">

<COMMENT>This example combines an OPM, OMM, OEM, and OCM in a single Navigation Data Message XML.</COMMENT>
<COMMENT>NOTE - In this case the messages are unrelated, but show how, in principle, related messages could be combined to satisfy a specific use case.</COMMENT>

<opm id="CCSDS_OPM_VERS" version="3.0">
   <header>
     <COMMENT>Example Orbit Parameter Message</COMMENT>
     <COMMENT>The OPM includes a set of orbital elements at time t, and an impulsive maneuver design with MAN_EPOCH_IGNITION = t.</COMMENT>
      <CREATION_DATE>2009-05-18T13:06:00</CREATION_DATE>
      <ORIGINATOR>NASA</ORIGINATOR>
   </header>
   <body>
      <segment>
         <metadata>
            <OBJECT_NAME>SOHO</OBJECT_NAME>
            <OBJECT_ID>2009-000A</OBJECT_ID>
            <CENTER_NAME>EARTH</CENTER_NAME>
            <REF_FRAME>EME2000</REF_FRAME>
            <TIME_SYSTEM>UTC</TIME_SYSTEM>
         </metadata>
         <data>
            <stateVector>
               <EPOCH>2009-05-12T15:30:00</EPOCH>
               <X>687754.36358524448</X>
               <Y>941287.85553999904</Y>
               <Z>520080.81101286016</Z>
               <X_DOT>-0.41396551860286032</X_DOT>
               <Y_DOT>0.29174462217893128</Y_DOT>
               <Z_DOT>0.11756781919443198</Z_DOT>
            </stateVector>
            <maneuverParameters>
               <COMMENT>The below contains information for the impulsive maneuver.</COMMENT>
               <MAN_EPOCH_IGNITION>2009-05-12T15:30:00</MAN_EPOCH_IGNITION>
               <MAN_DURATION>0</MAN_DURATION>
               <MAN_DELTA_MASS>-0.0252069575402913408</MAN_DELTA_MASS>
               <MAN_REF_FRAME>EME2000</MAN_REF_FRAME>
               <MAN_DV_1>0.000028562811624</MAN_DV_1>
               <MAN_DV_2>3.0883529021E-7</MAN_DV_2>
               <MAN_DV_3>1.4646782842E-8</MAN_DV_3>
            </maneuverParameters>
         </data>
      </segment>
   </body>
</opm>

<omm id="CCSDS_OMM_VERS" version="3.0">
   <header>
      <COMMENT>Example Orbit Mean-Elements Message</COMMENT>
      <COMMENT>ODM PROTOTYPING FOR CCSDS 502.0-P-1.1 - TEST NUMBER 4</COMMENT>
      <CREATION_DATE>2009-091T16:00:00</CREATION_DATE>
      <ORIGINATOR>CNES</ORIGINATOR>
   </header>
   <body>
      <segment>
         <metadata>
            <OBJECT_NAME>ISS-ZARYA</OBJECT_NAME>
            <OBJECT_ID>2022-067A</OBJECT_ID>
            <CENTER_NAME>EARTH</CENTER_NAME>
            <REF_FRAME>TEME</REF_FRAME>
            <TIME_SYSTEM>UTC</TIME_SYSTEM>
            <MEAN_ELEMENT_THEORY>SGP4</MEAN_ELEMENT_THEORY>
         </metadata>
         <data>
            <COMMENT>USAF SGP4 IS THE ONLY PROPAGATOR THAT SHOULD BE USED FOR THIS DATA</COMMENT>
            <meanElements>
               <EPOCH>2009-087T11:58:23.211264</EPOCH>
               <MEAN_MOTION>15.71784080</MEAN_MOTION>
               <ECCENTRICITY>0.0009738</ECCENTRICITY>
               <INCLINATION>51.6429</INCLINATION>
               <RA_OF_ASC_NODE>0.4159</RA_OF_ASC_NODE>
               <ARG_OF_PERICENTER>166.5533</ARG_OF_PERICENTER>
               <MEAN_ANOMALY>354.9076</MEAN_ANOMALY>
            </meanElements>
            <tleParameters>
               <EPHEMERIS_TYPE>0</EPHEMERIS_TYPE>
               <CLASSIFICATION_TYPE>U</CLASSIFICATION_TYPE>
               <NORAD_CAT_ID>25544</NORAD_CAT_ID>
               <ELEMENT_SET_NO>557</ELEMENT_SET_NO>
               <REV_AT_EPOCH>59325</REV_AT_EPOCH>
               <BSTAR>-0.21414E-3</BSTAR>
               <MEAN_MOTION_DOT>0.00027894</MEAN_MOTION_DOT>
               <MEAN_MOTION_DDOT>0.0</MEAN_MOTION_DDOT>
            </tleParameters>
         </data>
      </segment>
   </body>
</omm>

<oem id="CCSDS_OEM_VERS" version="3.0">
   <header>
      <COMMENT>Example Orbit Ephemeris Message</COMMENT>
      <CREATION_DATE>2009-02-05T10:09:12</CREATION_DATE>
      <ORIGINATOR>JAXA</ORIGINATOR>
   </header>
   <body>
      <segment>
         <metadata>
            <OBJECT_NAME>SELENE</OBJECT_NAME>
            <OBJECT_ID>131</OBJECT_ID>
            <CENTER_NAME>EARTH</CENTER_NAME>
            <REF_FRAME>EME2000</REF_FRAME>
            <TIME_SYSTEM>UTC</TIME_SYSTEM>
            <START_TIME>2007-09-14T10:43:00.000000</START_TIME>
            <STOP_TIME>2007-09-14T10:47:00.000000</STOP_TIME>
            <INTERPOLATION>Hermite</INTERPOLATION>
            <INTERPOLATION_DEGREE>7</INTERPOLATION_DEGREE>
         </metadata>
         <data>
            <stateVector>
               <EPOCH>2007-09-14T10:43:00.000000</EPOCH>
               <X>1.336886031675458E+03</X>
               <Y>9.480146566872711E+04</Y>
               <Z>3.266088528177066E+04</Z>
               <X_DOT>-6.305293974707967E-01</X_DOT>
               <Y_DOT>1.848864859994888E+00</Y_DOT>
               <Z_DOT>9.377640352829226E-01</Z_DOT>
            </stateVector>
            <stateVector>
               <EPOCH>2007-09-14T10:44:00.000000</EPOCH>
               <X>1.299053338219702E+03</X>
               <Y>9.491233015399727E+04</Y>
               <Z>3.271712789822781E+04</Z>
               <X_DOT>-6.305602161673365E-01</X_DOT>
               <Y_DOT>1.846618917569059E+00</Y_DOT>
               <Z_DOT>9.369900978163187E-01</Z_DOT>
            </stateVector>
            <stateVector>
               <EPOCH>2007-09-14T10:45:00.000000</EPOCH>
               <X>1.261218825877070E+03</X>
               <Y>9.502306005072314E+04</Y>
               <Z>3.277332412355368E+04</Z>
               <X_DOT>-6.305900282238581E-01</X_DOT>
               <Y_DOT>1.844378570838882E+00</Y_DOT>
               <Z_DOT>9.362176632629805E-01</Z_DOT>
            </stateVector>
            <stateVector>
               <EPOCH>2007-09-14T10:46:00.000000</EPOCH>
               <X>1.223382554832220E+03</X>
               <Y>9.513365569386665E+04</Y>
               <Z>3.282947404774766E+04</Z>
               <X_DOT>-6.306188407720047E-01</X_DOT>
               <Y_DOT>1.842143793832282E+00</Y_DOT>
               <Z_DOT>9.354467257772656E-01</Z_DOT>
            </stateVector>
            <stateVector>
               <EPOCH>2007-09-14T10:47:00.000000</EPOCH>
               <X>1.185544584842622E+03</X>
               <Y>9.524411741683590E+04</Y>
               <Z>3.288557776045905E+04</Z>
               <X_DOT>-6.306466608867719E-01</X_DOT>
               <Y_DOT>1.839914560746108E+00</Y_DOT>
               <Z_DOT>9.346772795446093E-01</Z_DOT>
            </stateVector>
         </data>
      </segment>
    </body>
</oem>

<ocm id="CCSDS_OCM_VERS" version="3.0">
   <header>
      <COMMENT>Example G-4 from OCM P2.40</COMMENT>
      <COMMENT>OCM example with multiple trajectory state time histories, a maneuver, OD, Cartesian and Keplerian ephemeris</COMMENT>
      <CREATION_DATE>2022-11-06T09:23:57</CREATION_DATE>
      <ORIGINATOR>JAXA</ORIGINATOR>
   </header>
   <body>
      <segment>
         <metadata>
            <OBJECT_NAME>OSPREY 5</OBJECT_NAME>
            <INTERNATIONAL_DESIGNATOR>2022-999A</INTERNATIONAL_DESIGNATOR>
            <CATALOG_NAME>CSPOC</CATALOG_NAME>
            <OBJECT_DESIGNATOR>98765</OBJECT_DESIGNATOR>
            <TIME_SYSTEM>UTC</TIME_SYSTEM>
            <EPOCH_TZERO>2022-12-18T14:28:15.1172</EPOCH_TZERO>
         </metadata>
         <data>
            <traj>
               <TRAJ_BASIS>PREDICTED</TRAJ_BASIS>
               <CENTER_NAME>EARTH</CENTER_NAME>
               <TRAJ_REF_FRAME>TOD_EARTH</TRAJ_REF_FRAME>
               <TRAJ_FRAME_EPOCH>2022-12-18T14:28:15.1172</TRAJ_FRAME_EPOCH>
               <USEABLE_START_TIME>2022-12-18T14:28:15.1172</USEABLE_START_TIME>
               <USEABLE_STOP_TIME>2022-12-18T14:28:45.1172</USEABLE_STOP_TIME>
               <TRAJ_TYPE>CARTPVA</TRAJ_TYPE>
               <TRAJ_UNITS>[km, km, km, km/s, km/s, km/s, km/s**2, km/s**2, km/s**2]</TRAJ_UNITS>
               <trajLine> 0.0  2854.5 -2916.2 -5360.7 5.90 4.86 0.52 0.0037 -0.0038 -0.0070</trajLine>
               <trajLine>120.0  5478.6   434.3 -3862.5 2.50 5.87 4.29 0.0072  0.0006 -0.0051</trajLine>
               <trajLine>240.0  4146.0 -1655.8 -5038.3 4.80 5.58 2.16 0.0054 -0.0022 -0.0066</trajLine>
               <trajLine>500.0 -1553.4 -4848.7 -4406.5 6.73 1.01 -3.53 -0.002 -0.0063 -0.0058</trajLine>
            </traj>
            <traj>
               <TRAJ_BASIS>DETERMINED</TRAJ_BASIS>
               <CENTER_NAME>EARTH</CENTER_NAME>
               <TRAJ_REF_FRAME>J2000</TRAJ_REF_FRAME>
               <TRAJ_TYPE>KEPLERIAN</TRAJ_TYPE>
               <TRAJ_UNITS>[km, n/a, deg, deg, deg, deg]</TRAJ_UNITS>
               <trajLine>0.000000 6600.0 .03 28.5 50.0 30.0 10.0</trajLine>
               <trajLine>120.000000 6600.0 .03 28.5 50.0 30.0 10.1</trajLine>
               <trajLine>240.000000 6600.0 .03 28.5 50.0 30.0 10.2</trajLine>
               <trajLine>500.000000 6600.0 .03 28.5 50.0 30.0 35.0</trajLine>
            </traj>
            <phys>
               <COMMENT>Spacecraft Physical Characteristics</COMMENT>
               <DRAG_CONST_AREA units="m**2">10.00</DRAG_CONST_AREA>
               <DRAG_COEFF_NOM>2.3</DRAG_COEFF_NOM>
               <WET_MASS units="kg">100.0</WET_MASS>
               <SRP_CONST_AREA units="m**2">4</SRP_CONST_AREA>
               <SOLAR_RAD_COEFF>1.3</SOLAR_RAD_COEFF>
            </phys>
            <man>
               <COMMENT>200 s of 10N thrust (in-track transitioning to radial)</COMMENT>
               <COMMENT>w/effic eta=0.95, Isp=300s, 5% 1-sigma error</COMMENT>
               <MAN_ID>E_W_20160305B</MAN_ID>
               <MAN_BASIS>CANDIDATE</MAN_BASIS>
               <MAN_DEVICE_ID>THR_01</MAN_DEVICE_ID>
               <MAN_PURPOSE>ORBIT</MAN_PURPOSE>
               <MAN_REF_FRAME>RSW_ROTATING</MAN_REF_FRAME>
               <DC_TYPE>CONTINUOUS</DC_TYPE>
               <MAN_COMPOSITION>TIME_RELATIVE MAN_DURA, THR_X, THR_Y, THR_Z, THR_MAG_SIGMA, THR_INTERP, THR_ISP, THR_EFFIC</MAN_COMPOSITION>
               <MAN_UNITS>[s, N, N, N, %, n/a, s, n/a]</MAN_UNITS>
               <manLine>500.0 200.0 0.0 10.0 0.0 5.0 ON 300.0 0.95</manLine>
               <manLine>700.0 200.0 0.0 10.0 0.0 5.0 OFF 300.0 0.95</manLine>
            </man>
            <pert>
               <COMMENT>Perturbations specification</COMMENT>
               <GM>398600.4415</GM>
            </pert>
            <od>
               <COMMENT>Orbit Determination information</COMMENT>
               <OD_ID>OD #10059</OD_ID>
               <OD_PREV_ID>OD #10058</OD_PREV_ID>
               <OD_METHOD>BWLS: BAHN</OD_METHOD>
               <OD_EPOCH>2001-11-06T11:17:33</OD_EPOCH>
               <OBS_USED>273</OBS_USED>
               <TRACKS_USED>91</TRACKS_USED>
            </od>
         </data>
      </segment>
   </body>
</ocm>
</ndm>
